<?xml version="1.0" encoding="UTF-8"?>
<ndm xmlns:xsi="http://www.w3.org/2001/XMLSchema-instance" xsi:noNamespaceSchemaLocation="https://sanaregistry.org/r/ndmxml_unqualified/ndmxml-2.0.0-master-2.0.xsd">
<omm id="CCSDS_OMM_VERS" version="2.0">
<header><CREATION_DATE/><ORIGINATOR/></header><body><segment><metadata><OBJECT_NAME>ONEWEB-0504</OBJECT_NAME><OBJECT_ID>2022-138K</OBJECT_ID><CENTER_NAME>EARTH</CENTER_NAME><REF_FRAME>TEME</REF_FRAME><TIME_SYSTEM>UTC</TIME_SYSTEM><MEAN_ELEMENT_THEORY>SGP4</MEAN_ELEMENT_THEORY></metadata><data><meanElements><EPOCH>2025-02-02T11:53:39.868512</EPOCH><MEAN_MOTION>13.19724413</MEAN_MOTION><ECCENTRICITY>.0001593</ECCENTRICITY><INCLINATION>87.9143</INCLINATION><RA_OF_ASC_NODE>44.2926</RA_OF_ASC_NODE><ARG_OF_PERICENTER>100.0867</ARG_OF_PERICENTER><MEAN_ANOMALY>260.0445</MEAN_ANOMALY></meanElements><tleParameters><EPHEMERIS_TYPE>0</EPHEMERIS_TYPE><CLASSIFICATION_TYPE>U</CLASSIFICATION_TYPE><NORAD_CAT_ID>54122</NORAD_CAT_ID><ELEMENT_SET_NO>999</ELEMENT_SET_NO><REV_AT_EPOCH>11092</REV_AT_EPOCH><BSTAR>.35617E-3</BSTAR><MEAN_MOTION_DOT>.156E-5</MEAN_MOTION_DOT><MEAN_MOTION_DDOT>0</MEAN_MOTION_DDOT></tleParameters></data></segment></body></omm>
<omm id="CCSDS_OMM_VERS" version="2.0">
<header><CREATION_DATE/><ORIGINATOR/></header><body><segment><metadata><OBJECT_NAME>ONEWEB-0505</OBJECT_NAME><OBJECT_ID>2022-138L</OBJECT_ID><CENTER_NAME>EARTH</CENTER_NAME><REF_FRAME>TEME</REF_FRAME><TIME_SYSTEM>UTC</TIME_SYSTEM><MEAN_ELEMENT_THEORY>SGP4</MEAN_ELEMENT_THEORY></metadata><data><meanElements><EPOCH>2025-02-02T22:44:10.074048</EPOCH><MEAN_MOTION>13.19724264</MEAN_MOTION><ECCENTRICITY>.0001756</ECCENTRICITY><INCLINATION>87.9143</INCLINATION><RA_OF_ASC_NODE>44.1938</RA_OF_ASC_NODE><ARG_OF_PERICENTER>110.8561</ARG_OF_PERICENTER><MEAN_ANOMALY>249.2760</MEAN_ANOMALY></meanElements><tleParameters><EPHEMERIS_TYPE>0</EPHEMERIS_TYPE><CLASSIFICATION_TYPE>U</CLASSIFICATION_TYPE><NORAD_CAT_ID>54123</NORAD_CAT_ID><ELEMENT_SET_NO>999</ELEMENT_SET_NO><REV_AT_EPOCH>11096</REV_AT_EPOCH><BSTAR>.54821E-4</BSTAR><MEAN_MOTION_DOT>.35E-6</MEAN_MOTION_DOT><MEAN_MOTION_DDOT>0</MEAN_MOTION_DDOT></tleParameters></data></segment></body></omm>
<omm id="CCSDS_OMM_VERS" version="2.0">
<header><CREATION_DATE/><ORIGINATOR/></header><body><segment><metadata><OBJECT_NAME>ONEWEB-0506</OBJECT_NAME><OBJECT_ID>2022-138M</OBJECT_ID><CENTER_NAME>EARTH</CENTER_NAME><REF_FRAME>TEME</REF_FRAME><TIME_SYSTEM>UTC</TIME_SYSTEM><MEAN_ELEMENT_THEORY>SGP4</MEAN_ELEMENT_THEORY></metadata><data><meanElements><EPOCH>2025-02-02T11:12:44.342496</EPOCH><MEAN_MOTION>13.19726828</MEAN_MOTION><ECCENTRICITY>.0001824</ECCENTRICITY><INCLINATION>87.9141</INCLINATION><RA_OF_ASC_NODE>44.2870</RA_OF_ASC_NODE><ARG_OF_PERICENTER>97.3285</ARG_OF_PERICENTER><MEAN_ANOMALY>262.8055</MEAN_ANOMALY></meanElements><tleParameters><EPHEMERIS_TYPE>0</EPHEMERIS_TYPE><CLASSIFICATION_TYPE>U</CLASSIFICATION_TYPE><NORAD_CAT_ID>54124</NORAD_CAT_ID><ELEMENT_SET_NO>999</ELEMENT_SET_NO><REV_AT_EPOCH>11089</REV_AT_EPOCH><BSTAR>.54173E-4</BSTAR><MEAN_MOTION_DOT>.35E-6</MEAN_MOTION_DOT><MEAN_MOTION_DDOT>0</MEAN_MOTION_DDOT></tleParameters></data></segment></body></omm>
<omm id="CCSDS_OMM_VERS" version="2.0">
<header><CREATION_DATE/><ORIGINATOR/></header><body><segment><metadata><OBJECT_NAME>ONEWEB-0507</OBJECT_NAME><OBJECT_ID>2022-138N</OBJECT_ID><CENTER_NAME>EARTH</CENTER_NAME><REF_FRAME>TEME</REF_FRAME><TIME_SYSTEM>UTC</TIME_SYSTEM><MEAN_ELEMENT_THEORY>SGP4</MEAN_ELEMENT_THEORY></metadata><data><meanElements><EPOCH>2025-02-02T22:37:20.748000</EPOCH><MEAN_MOTION>13.19724449</MEAN_MOTION><ECCENTRICITY>.0001929</ECCENTRICITY><INCLINATION>87.9149</INCLINATION><RA_OF_ASC_NODE>44.2329</RA_OF_ASC_NODE><ARG_OF_PERICENTER>97.9632</ARG_OF_PERICENTER><MEAN_ANOMALY>262.1720</MEAN_ANOMALY></meanElements><tleParameters><EPHEMERIS_TYPE>0</EPHEMERIS_TYPE><CLASSIFICATION_TYPE>U</CLASSIFICATION_TYPE><NORAD_CAT_ID>54125</NORAD_CAT_ID><ELEMENT_SET_NO>999</ELEMENT_SET_NO><REV_AT_EPOCH>11100</REV_AT_EPOCH><BSTAR>.92406E-4</BSTAR><MEAN_MOTION_DOT>.5E-6</MEAN_MOTION_DOT><MEAN_MOTION_DDOT>0</MEAN_MOTION_DDOT></tleParameters></data></segment></body></omm>
<omm id="CCSDS_OMM_VERS" version="2.0">
<header><CREATION_DATE/><ORIGINATOR/></header><body><segment><metadata><OBJECT_NAME>ONEWEB-0508</OBJECT_NAME><OBJECT_ID>2022-138P</OBJECT_ID><CENTER_NAME>EARTH</CENTER_NAME><REF_FRAME>TEME</REF_FRAME><TIME_SYSTEM>UTC</TIME_SYSTEM><MEAN_ELEMENT_THEORY>SGP4</MEAN_ELEMENT_THEORY></metadata><data><meanElements><EPOCH>2025-02-02T11:37:45.323904</EPOCH><MEAN_MOTION>13.19725299</MEAN_MOTION><ECCENTRICITY>.0002043</ECCENTRICITY><INCLINATION>87.9147</INCLINATION><RA_OF_ASC_NODE>44.3111</RA_OF_ASC_NODE><ARG_OF_PERICENTER>103.9885</ARG_OF_PERICENTER><MEAN_ANOMALY>256.1475</MEAN_ANOMALY></meanElements><tleParameters><EPHEMERIS_TYPE>0</EPHEMERIS_TYPE><CLASSIFICATION_TYPE>U</CLASSIFICATION_TYPE><NORAD_CAT_ID>54126</NORAD_CAT_ID><ELEMENT_SET_NO>999</ELEMENT_SET_NO><REV_AT_EPOCH>11092</REV_AT_EPOCH><BSTAR>.15092E-3</BSTAR><MEAN_MOTION_DOT>.73E-6</MEAN_MOTION_DOT><MEAN_MOTION_DDOT>0</MEAN_MOTION_DDOT></tleParameters></data></segment></body></omm>
<omm id="CCSDS_OMM_VERS" version="2.0">
<header><CREATION_DATE/><ORIGINATOR/></header><body><segment><metadata><OBJECT_NAME>ONEWEB-0509</OBJECT_NAME><OBJECT_ID>2022-138Q</OBJECT_ID><CENTER_NAME>EARTH</CENTER_NAME><REF_FRAME>TEME</REF_FRAME><TIME_SYSTEM>UTC</TIME_SYSTEM><MEAN_ELEMENT_THEORY>SGP4</MEAN_ELEMENT_THEORY></metadata><data><meanElements><EPOCH>2025-02-02T12:50:30.918912</EPOCH><MEAN_MOTION>13.19723849</MEAN_MOTION><ECCENTRICITY>.0001811</ECCENTRICITY><INCLINATION>87.9139</INCLINATION><RA_OF_ASC_NODE>44.2725</RA_OF_ASC_NODE><ARG_OF_PERICENTER>94.5095</ARG_OF_PERICENTER><MEAN_ANOMALY>265.6244</MEAN_ANOMALY></meanElements><tleParameters><EPHEMERIS_TYPE>0</EPHEMERIS_TYPE><CLASSIFICATION_TYPE>U</CLASSIFICATION_TYPE><NORAD_CAT_ID>54127</NORAD_CAT_ID><ELEMENT_SET_NO>999</ELEMENT_SET_NO><REV_AT_EPOCH>11090</REV_AT_EPOCH><BSTAR>.2911E-3</BSTAR><MEAN_MOTION_DOT>.129E-5</MEAN_MOTION_DOT><MEAN_MOTION_DDOT>0</MEAN_MOTION_DDOT></tleParameters></data></segment></body></omm>
<omm id="CCSDS_OMM_VERS" version="2.0">
<header><CREATION_DATE/><ORIGINATOR/></header><body><segment><metadata><OBJECT_NAME>ONEWEB-0510</OBJECT_NAME><OBJECT_ID>2022-138R</OBJECT_ID><CENTER_NAME>EARTH</CENTER_NAME><REF_FRAME>TEME</REF_FRAME><TIME_SYSTEM>UTC</TIME_SYSTEM><MEAN_ELEMENT_THEORY>SGP4</MEAN_ELEMENT_THEORY></metadata><data><meanElements><EPOCH>2025-02-02T23:16:47.757216</EPOCH><MEAN_MOTION>13.20771132</MEAN_MOTION><ECCENTRICITY>.000218</ECCENTRICITY><INCLINATION>87.9275</INCLINATION><RA_OF_ASC_NODE>13.7589</RA_OF_ASC_NODE><ARG_OF_PERICENTER>78.5511</ARG_OF_PERICENTER><MEAN_ANOMALY>281.5867</MEAN_ANOMALY></meanElements><tleParameters><EPHEMERIS_TYPE>0</EPHEMERIS_TYPE><CLASSIFICATION_TYPE>U</CLASSIFICATION_TYPE><NORAD_CAT_ID>54128</NORAD_CAT_ID><ELEMENT_SET_NO>999</ELEMENT_SET_NO><REV_AT_EPOCH>11338</REV_AT_EPOCH><BSTAR>.61215E-3</BSTAR><MEAN_MOTION_DOT>.262E-5</MEAN_MOTION_DOT><MEAN_MOTION_DDOT>0</MEAN_MOTION_DDOT></tleParameters></data></segment></body></omm>
<omm id="CCSDS_OMM_VERS" version="2.0">
<header><CREATION_DATE/><ORIGINATOR/></header><body><segment><metadata><OBJECT_NAME>ONEWEB-0511</OBJECT_NAME><OBJECT_ID>2022-138S</OBJECT_ID><CENTER_NAME>EARTH</CENTER_NAME><REF_FRAME>TEME</REF_FRAME><TIME_SYSTEM>UTC</TIME_SYSTEM><MEAN_ELEMENT_THEORY>SGP4</MEAN_ELEMENT_THEORY></metadata><data><meanElements><EPOCH>2025-02-02T12:45:58.516992</EPOCH><MEAN_MOTION>13.19724489</MEAN_MOTION><ECCENTRICITY>.000149</ECCENTRICITY><INCLINATION>87.9140</INCLINATION><RA_OF_ASC_NODE>44.2779</RA_OF_ASC_NODE><ARG_OF_PERICENTER>88.0881</ARG_OF_PERICENTER><MEAN_ANOMALY>272.0422</MEAN_ANOMALY></meanElements><tleParameters><EPHEMERIS_TYPE>0</EPHEMERIS_TYPE><CLASSIFICATION_TYPE>U</CLASSIFICATION_TYPE><NORAD_CAT_ID>54129</NORAD_CAT_ID><ELEMENT_SET_NO>999</ELEMENT_SET_NO><REV_AT_EPOCH>11180</REV_AT_EPOCH><BSTAR>.16591E-3</BSTAR><MEAN_MOTION_DOT>.79E-6</MEAN_MOTION_DOT><MEAN_MOTION_DDOT>0</MEAN_MOTION_DDOT></tleParameters></data></segment></body></omm>

</ndm>
