ONEWEB-0504             
1 54122U 22138K   25033.49560033  .00000156  00000+0  35617-3 0  9999
2 54122  87.9143  44.2926 0001593 100.0867 260.0445 13.19724413110924
ONEWEB-0505             
1 54123U 22138L   25033.94733882  .00000035  00000+0  54821-4 0  9999
2 54123  87.9143  44.1938 0001756 110.8561 249.2760 13.19724264110965
ONEWEB-0506             
1 54124U 22138M   25033.46717989  .00000035  00000+0  54173-4 0  9997
2 54124  87.9141  44.2870 0001824  97.3285 262.8055 13.19726828110896
ONEWEB-0507             
1 54125U 22138N   25033.94260125  .00000050  00000+0  92406-4 0  9994
2 54125  87.9149  44.2329 0001929  97.9632 262.1720 13.19724449111005
ONEWEB-0508             
1 54126U 22138P   25033.48455236  .00000073  00000+0  15092-3 0  9993
2 54126  87.9147  44.3111 0002043 103.9885 256.1475 13.19725299110924
ONEWEB-0509             
1 54127U 22138Q   25033.53508008  .00000129  00000+0  29110-3 0  9994
2 54127  87.9139  44.2725 0001811  94.5095 265.6244 13.19723849110902
ONEWEB-0510             
1 54128U 22138R   25033.96999719  .00000262  00000+0  61215-3 0  9995
2 54128  87.9275  13.7589 0002180  78.5511 281.5867 13.20771132113381
ONEWEB-0511             
1 54129U 22138S   25033.53192728  .00000079  00000+0  16591-3 0  9997
2 54129  87.9140  44.2779 0001490  88.0881 272.0422 13.19724489111800
